[{"OBJECT_NAME":"STARLINK-31042","OBJECT_ID":"2024-005M","EPOCH":"2026-03-09T17:50:25.214496","MEAN_MOTION":15.2674208,"ECCENTRICITY":7.233e-5,"INCLINATION":43.0003,"RA_OF_ASC_NODE":219.2871,"ARG_OF_PERICENTER":275.9861,"MEAN_ANOMALY":84.0908,"EPHEMERIS_TYPE":0,"CLASSIFICATION_TYPE":"U","NORAD_CAT_ID":58739,"ELEMENT_SET_NO":999,"REV_AT_EPOCH":12045,"BSTAR":8.5254954e-5,"MEAN_MOTION_DOT":2.028e-5,"MEAN_MOTION_DDOT":0},{"OBJECT_NAME":"FLOCK 4G-3","OBJECT_ID":"2025-009AG","EPOCH":"2026-03-09T19:14:30.392160","MEAN_MOTION":15.2717931,"ECCENTRICITY":0.00013196,"INCLINATION":97.4062,"RA_OF_ASC_NODE":151.4068,"ARG_OF_PERICENTER":293.2042,"MEAN_ANOMALY":66.9058,"EPHEMERIS_TYPE":0,"CLASSIFICATION_TYPE":"U","NORAD_CAT_ID":62639,"ELEMENT_SET_NO":999,"REV_AT_EPOCH":6372,"BSTAR":0.0004338875,"MEAN_MOTION_DOT":0.00011494,"MEAN_MOTION_DDOT":0}]
